{
  "type": "FeatureCollection",
  "features": [
    {
      "type": "Feature",
      "properties": {
        "norad_id": 64694,
        "name": "GOSAT-GW (IBUKI GW)",
        "group": "resource",
        "lat": -15.773027370009933,
        "lon": -61.56032782589183,
        "alt_km": 673.7840126681876,
        "timestamp": "2025-12-26T21:25:52.664456+00:00",
        "meta_object_name": "GOSAT-GW (IBUKI GW)",
        "meta_object_id": "2025-141A",
        "meta_epoch": "2025-12-26T14:57:30.053664",
        "meta_mean_motion": 14.67563265,
        "meta_eccentricity": 0.00014251,
        "meta_inclination": 98.0441,
        "meta_ra_of_asc_node": 295.8855,
        "meta_arg_of_pericenter": 82.171,
        "meta_mean_anomaly": 277.9657,
        "meta_ephemeris_type": 0,
        "meta_classification_type": "U",
        "meta_norad_cat_id": 64694,
        "meta_element_set_no": 999,
        "meta_rev_at_epoch": 2653,
        "meta_bstar": 0.00020526779,
        "meta_mean_motion_dot": 1.117e-05,
        "meta_mean_motion_ddot": 0,
        "tle_line1": "1 64694U 25141A   25360.62326451  .00001117  00000+0  20527-3 0  9995",
        "tle_line2": "2 64694  98.0441 295.8855 0001425  82.1710 277.9657 14.67563265 26534"
      },
      "geometry": {
        "type": "Point",
        "coordinates": [
          -61.56032782589183,
          -15.773027370009933
        ]
      }
    },
    {
      "type": "Feature",
      "properties": {
        "norad_id": 64876,
        "name": "IONOSFERA-M 3",
        "group": "resource",
        "lat": 19.014462053922305,
        "lon": 145.34219085741097,
        "alt_km": 821.3483515168818,
        "timestamp": "2025-12-26T21:25:52.664466+00:00",
        "meta_object_name": "IONOSFERA-M 3",
        "meta_object_id": "2025-155A",
        "meta_epoch": "2025-12-26T15:36:35.785152",
        "meta_mean_motion": 14.21444402,
        "meta_eccentricity": 0.00017859,
        "meta_inclination": 98.5802,
        "meta_ra_of_asc_node": 322.1241,
        "meta_arg_of_pericenter": 37.4135,
        "meta_mean_anomaly": 322.7167,
        "meta_ephemeris_type": 0,
        "meta_classification_type": "U",
        "meta_norad_cat_id": 64876,
        "meta_element_set_no": 999,
        "meta_rev_at_epoch": 2189,
        "meta_bstar": 6.4801093e-05,
        "meta_mean_motion_dot": 9.9e-07,
        "meta_mean_motion_ddot": 0,
        "tle_line1": "1 64876U 25155A   25360.65041418  .00000099  00000+0  64801-4 0  9994",
        "tle_line2": "2 64876  98.5802 322.1241 0001785  37.4135 322.7167 14.21444402 21898"
      },
      "geometry": {
        "type": "Point",
        "coordinates": [
          145.34219085741097,
          19.014462053922305
        ]
      }
    },
    {
      "type": "Feature",
      "properties": {
        "norad_id": 64877,
        "name": "IONOSFERA-M 4",
        "group": "resource",
        "lat": -18.558222910752207,
        "lon": -34.81542432643465,
        "alt_km": 825.1360608898713,
        "timestamp": "2025-12-26T21:25:52.664476+00:00",
        "meta_object_name": "IONOSFERA-M 4",
        "meta_object_id": "2025-155B",
        "meta_epoch": "2025-12-26T14:45:42.821280",
        "meta_mean_motion": 14.21445553,
        "meta_eccentricity": 0.00012368,
        "meta_inclination": 98.5802,
        "meta_ra_of_asc_node": 322.0091,
        "meta_arg_of_pericenter": 50.7642,
        "meta_mean_anomaly": 309.3646,
        "meta_ephemeris_type": 0,
        "meta_classification_type": "U",
        "meta_norad_cat_id": 64877,
        "meta_element_set_no": 999,
        "meta_rev_at_epoch": 2188,
        "meta_bstar": 6.4863124e-05,
        "meta_mean_motion_dot": 9.9e-07,
        "meta_mean_motion_ddot": 0,
        "tle_line1": "1 64877U 25155B   25360.61507895  .00000099  00000+0  64863-4 0  9995",
        "tle_line2": "2 64877  98.5802 322.0091 0001236  50.7642 309.3646 14.21445553 21883"
      },
      "geometry": {
        "type": "Point",
        "coordinates": [
          -34.81542432643465,
          -18.558222910752207
        ]
      }
    },
    {
      "type": "Feature",
      "properties": {
        "norad_id": 64899,
        "name": "MICROCARB",
        "group": "resource",
        "lat": -11.338367562703384,
        "lon": -105.60558163020995,
        "alt_km": 658.5558120149053,
        "timestamp": "2025-12-26T21:25:52.664486+00:00",
        "meta_object_name": "MICROCARB",
        "meta_object_id": "2025-156A",
        "meta_epoch": "2025-12-26T10:46:43.165344",
        "meta_mean_motion": 14.72078872,
        "meta_eccentricity": 0.00176686,
        "meta_inclination": 98.0009,
        "meta_ra_of_asc_node": 75.5739,
        "meta_arg_of_pericenter": 103.7496,
        "meta_mean_anomaly": 256.5679,
        "meta_ephemeris_type": 0,
        "meta_classification_type": "U",
        "meta_norad_cat_id": 64899,
        "meta_element_set_no": 999,
        "meta_rev_at_epoch": 2255,
        "meta_bstar": 0.00012845891,
        "meta_mean_motion_dot": 7.6e-06,
        "meta_mean_motion_ddot": 0,
        "tle_line1": "1 64899U 25156A   25360.44911071  .00000760  00000+0  12846-3 0  9994",
        "tle_line2": "2 64899  98.0009  75.5739 0017668 103.7496 256.5679 14.72078872 22558"
      },
      "geometry": {
        "type": "Point",
        "coordinates": [
          -105.60558163020995,
          -11.338367562703384
        ]
      }
    },
    {
      "type": "Feature",
      "properties": {
        "norad_id": 64900,
        "name": "CO3D 3",
        "group": "resource",
        "lat": 18.840831678342845,
        "lon": -100.38963170526038,
        "alt_km": 505.6010400383384,
        "timestamp": "2025-12-26T21:25:52.664510+00:00",
        "meta_object_name": "CO3D 3",
        "meta_object_id": "2025-156B",
        "meta_epoch": "2025-12-26T12:49:38.111232",
        "meta_mean_motion": 15.2020057,
        "meta_eccentricity": 0.00013033,
        "meta_inclination": 97.4343,
        "meta_ra_of_asc_node": 76.7033,
        "meta_arg_of_pericenter": 70.4568,
        "meta_mean_anomaly": 289.6808,
        "meta_ephemeris_type": 0,
        "meta_classification_type": "U",
        "meta_norad_cat_id": 64900,
        "meta_element_set_no": 999,
        "meta_rev_at_epoch": 2330,
        "meta_bstar": 1.9442844e-05,
        "meta_mean_motion_dot": 3.53e-06,
        "meta_mean_motion_ddot": 0,
        "tle_line1": "1 64900U 25156B   25360.53446888  .00000353  00000+0  19443-4 0  9995",
        "tle_line2": "2 64900  97.4343  76.7033 0001303  70.4568 289.6808 15.20200570 23305"
      },
      "geometry": {
        "type": "Point",
        "coordinates": [
          -100.38963170526038,
          18.840831678342845
        ]
      }
    },
    {
      "type": "Feature",
      "properties": {
        "norad_id": 64901,
        "name": "CO3D 4",
        "group": "resource",
        "lat": 19.709002122782135,
        "lon": -100.26204342351181,
        "alt_km": 504.4806473205199,
        "timestamp": "2025-12-26T21:25:52.664523+00:00",
        "meta_object_name": "CO3D 4",
        "meta_object_id": "2025-156C",
        "meta_epoch": "2025-12-26T14:24:38.784960",
        "meta_mean_motion": 15.20199581,
        "meta_eccentricity": 0.00014178,
        "meta_inclination": 97.4337,
        "meta_ra_of_asc_node": 76.7688,
        "meta_arg_of_pericenter": 147.7595,
        "meta_mean_anomaly": 212.3727,
        "meta_ephemeris_type": 0,
        "meta_classification_type": "U",
        "meta_norad_cat_id": 64901,
        "meta_element_set_no": 999,
        "meta_rev_at_epoch": 2331,
        "meta_bstar": 0.00029085743,
        "meta_mean_motion_dot": 6.234e-05,
        "meta_mean_motion_ddot": 0,
        "tle_line1": "1 64901U 25156C   25360.60044890  .00006234  00000+0  29086-3 0  9998",
        "tle_line2": "2 64901  97.4337  76.7688 0001417 147.7595 212.3727 15.20199581 23312"
      },
      "geometry": {
        "type": "Point",
        "coordinates": [
          -100.26204342351181,
          19.709002122782135
        ]
      }
    },
    {
      "type": "Feature",
      "properties": {
        "norad_id": 64902,
        "name": "CO3D 2",
        "group": "resource",
        "lat": -17.57318593000703,
        "lon": 79.32585027900909,
        "alt_km": 510.1610971084583,
        "timestamp": "2025-12-26T21:25:52.664533+00:00",
        "meta_object_name": "CO3D 2",
        "meta_object_id": "2025-156D",
        "meta_epoch": "2025-12-26T13:36:37.387296",
        "meta_mean_motion": 15.20205411,
        "meta_eccentricity": 8.063e-05,
        "meta_inclination": 97.4339,
        "meta_ra_of_asc_node": 76.6347,
        "meta_arg_of_pericenter": 62.3682,
        "meta_mean_anomaly": 297.7635,
        "meta_ephemeris_type": 0,
        "meta_classification_type": "U",
        "meta_norad_cat_id": 64902,
        "meta_element_set_no": 999,
        "meta_rev_at_epoch": 2330,
        "meta_bstar": 0.00022918838,
        "meta_mean_motion_dot": 4.898e-05,
        "meta_mean_motion_ddot": 0,
        "tle_line1": "1 64902U 25156D   25360.56709939  .00004898  00000+0  22919-3 0  9998",
        "tle_line2": "2 64902  97.4339  76.6347 0000806  62.3682 297.7635 15.20205411 23300"
      },
      "geometry": {
        "type": "Point",
        "coordinates": [
          79.32585027900909,
          -17.57318593000703
        ]
      }
    }
  ]
}